{"type": "FeatureCollection", "features": [ {"type": "Feature", "properties": {"norad_id": 35160, "name": "FENGYUN 1C DEB", "group": "fengyun-1c-debris", "lat": -32.565443144623835, "lon": -91.0697924366281, "alt_km": 686.3595131976526, "timestamp": "2025-12-06T18:50:10.456230+00:00", "meta": {"OBJECT_NAME": "FENGYUN 1C DEB", "OBJECT_ID": "1999-025DMQ", "EPOCH": "2025-12-06T01:06:31.144320", "MEAN_MOTION": 14.35929715, "ECCENTRICITY": 0.01759557, "INCLINATION": 99.1551, "RA_OF_ASC_NODE": 94.0576, "ARG_OF_PERICENTER": 259.0237, "MEAN_ANOMALY": 99.111, "EPHEMERIS_TYPE": 0, "CLASSIFICATION_TYPE": "U", "NORAD_CAT_ID": 35160, "ELEMENT_SET_NO": 999, "REV_AT_EPOCH": 64835, "BSTAR": 0.00080713756, "MEAN_MOTION_DOT": 2.737e-05, "MEAN_MOTION_DDOT": 0}, "tle": {"line1": "1 35160U 99025DMQ 25340.04619380  .00002737  00000+0  80714-3 0  9996", "line2": "2 35160  99.1551  94.0576 0175955 259.0237  99.1110 14.35929715648351"}}, "geometry": {"type": "Point", "coordinates": [-91.0697924366281, -32.565443144623835]}}, {"type": "Feature", "properties": {"norad_id": 35165, "name": "FENGYUN 1C DEB", "group": "fengyun-1c-debris", "lat": 31.668427043944696, "lon": 66.9750058947525, "alt_km": 767.449643015746, "timestamp": "2025-12-06T18:50:10.456240+00:00", "meta": {"OBJECT_NAME": "FENGYUN 1C DEB", "OBJECT_ID": "1999-025DMV", "EPOCH": "2025-11-30T05:14:00.190464", "MEAN_MOTION": 14.33570134, "ECCENTRICITY": 0.00218891, "INCLINATION": 98.8778, "RA_OF_ASC_NODE": 65.7738, "ARG_OF_PERICENTER": 100.7376, "MEAN_ANOMALY": 259.6273, "EPHEMERIS_TYPE": 0, "CLASSIFICATION_TYPE": "U", "NORAD_CAT_ID": 35165, "ELEMENT_SET_NO": 999, "REV_AT_EPOCH": 89541, "BSTAR": 0.0024382815, "MEAN_MOTION_DOT": 6.727e-05, "MEAN_MOTION_DDOT": 0}, "tle": {"line1": "1 35165U 99025DMV 25334.21805776  .00006727  00000+0  24383-2 0  9991", "line2": "2 35165  98.8778  65.7738 0021889 100.7376 259.6273 14.33570134895419"}}, "geometry": {"type": "Point", "coordinates": [66.9750058947525, 31.668427043944696]}}, {"type": "Feature", "properties": {"norad_id": 35167, "name": "FENGYUN 1C DEB", "group": "fengyun-1c-debris", "lat": -31.921183629917888, "lon": 148.83019843915625, "alt_km": 632.2545406016516, "timestamp": "2025-12-06T18:50:10.456250+00:00", "meta": {"OBJECT_NAME": "FENGYUN 1C DEB", "OBJECT_ID": "1999-025DMX", "EPOCH": "2025-11-27T17:22:23.212128", "MEAN_MOTION": 14.31084388, "ECCENTRICITY": 0.02289339, "INCLINATION": 98.4496, "RA_OF_ASC_NODE": 325.3238, "ARG_OF_PERICENTER": 248.7447, "MEAN_ANOMALY": 108.915, "EPHEMERIS_TYPE": 0, "CLASSIFICATION_TYPE": "U", "NORAD_CAT_ID": 35167, "ELEMENT_SET_NO": 999, "REV_AT_EPOCH": 69805, "BSTAR": 0.00055665644, "MEAN_MOTION_DOT": 1.904e-05, "MEAN_MOTION_DDOT": 0}, "tle": {"line1": "1 35167U 99025DMX 25331.72387977  .00001904  00000+0  55666-3 0  9995", "line2": "2 35167  98.4496 325.3238 0228933 248.7447 108.9150 14.31084388698055"}}, "geometry": {"type": "Point", "coordinates": [148.83019843915625, -31.921183629917888]}}, {"type": "Feature", "properties": {"norad_id": 35169, "name": "FENGYUN 1C DEB", "group": "fengyun-1c-debris", "lat": 30.28481697417652, "lon": -141.6218630779019, "alt_km": 703.4818554198264, "timestamp": "2025-12-06T18:50:10.456260+00:00", "meta": {"OBJECT_NAME": "FENGYUN 1C DEB", "OBJECT_ID": "1999-025DMZ", "EPOCH": "2025-12-05T11:24:48.463488", "MEAN_MOTION": 14.58604827, "ECCENTRICITY": 0.01525013, "INCLINATION": 99.1294, "RA_OF_ASC_NODE": 222.329, "ARG_OF_PERICENTER": 129.6073, "MEAN_ANOMALY": 231.8702, "EPHEMERIS_TYPE": 0, "CLASSIFICATION_TYPE": "U", "NORAD_CAT_ID": 35169, "ELEMENT_SET_NO": 999, "REV_AT_EPOCH": 65674, "BSTAR": 0.00095565714, "MEAN_MOTION_DOT": 5.168e-05, "MEAN_MOTION_DDOT": 0}, "tle": {"line1": "1 35169U 99025DMZ 25339.47556092  .00005168  00000+0  95566-3 0  9992", "line2": "2 35169  99.1294 222.3290 0152501 129.6073 231.8702 14.58604827656748"}}, "geometry": {"type": "Point", "coordinates": [-141.6218630779019, 30.28481697417652]}}, {"type": "Feature", "properties": {"norad_id": 35171, "name": "FENGYUN 1C DEB", "group": "fengyun-1c-debris", "lat": 21.63096391169057, "lon": 128.67919486235797, "alt_km": 841.7481139671354, "timestamp": "2025-12-06T18:50:10.456270+00:00", "meta": {"OBJECT_NAME": "FENGYUN 1C DEB", "OBJECT_ID": "1999-025DNB", "EPOCH": "2025-12-06T03:14:27.009312", "MEAN_MOTION": 13.94919296, "ECCENTRICITY": 0.01375813, "INCLINATION": 99.0086, "RA_OF_ASC_NODE": 131.6514, "ARG_OF_PERICENTER": 336.9909, "MEAN_ANOMALY": 22.5128, "EPHEMERIS_TYPE": 0, "CLASSIFICATION_TYPE": "U", "NORAD_CAT_ID": 35171, "ELEMENT_SET_NO": 999, "REV_AT_EPOCH": 88466, "BSTAR": 0.0026431679, "MEAN_MOTION_DOT": 3.801e-05, "MEAN_MOTION_DDOT": 0}, "tle": {"line1": "1 35171U 99025DNB 25340.13503483  .00003801  00000+0  26432-2 0  9993", "line2": "2 35171  99.0086 131.6514 0137581 336.9909  22.5128 13.94919296884661"}}, "geometry": {"type": "Point", "coordinates": [128.67919486235797, 21.63096391169057]}}, {"type": "Feature", "properties": {"norad_id": 35173, "name": "FENGYUN 1C DEB", "group": "fengyun-1c-debris", "lat": 49.91517547535775, "lon": -115.63278274244756, "alt_km": 1155.2400005965683, "timestamp": "2025-12-06T18:50:10.456279+00:00", "meta": {"OBJECT_NAME": "FENGYUN 1C DEB", "OBJECT_ID": "1999-025DND", "EPOCH": "2025-12-06T00:11:15.437184", "MEAN_MOTION": 13.37277281, "ECCENTRICITY": 0.04906763, "INCLINATION": 99.7871, "RA_OF_ASC_NODE": 51.7832, "ARG_OF_PERICENTER": 229.9973, "MEAN_ANOMALY": 125.7105, "EPHEMERIS_TYPE": 0, "CLASSIFICATION_TYPE": "U", "NORAD_CAT_ID": 35173, "ELEMENT_SET_NO": 999, "REV_AT_EPOCH": 65739, "BSTAR": 0.0040782912, "MEAN_MOTION_DOT": 4.225e-05, "MEAN_MOTION_DDOT": 0}, "tle": {"line1": "1 35173U 99025DND 25340.00781756  .00004225  00000+0  40783-2 0  9998", "line2": "2 35173  99.7871  51.7832 0490676 229.9973 125.7105 13.37277281657393"}}, "geometry": {"type": "Point", "coordinates": [-115.63278274244756, 49.91517547535775]}}, {"type": "Feature", "properties": {"norad_id": 35174, "name": "FENGYUN 1C DEB", "group": "fengyun-1c-debris", "lat": 62.31227351278126, "lon": 151.69893288988723, "alt_km": 557.8671986235959, "timestamp": "2025-12-06T18:50:10.456289+00:00", "meta": {"OBJECT_NAME": "FENGYUN 1C DEB", "OBJECT_ID": "1999-025DNE", "EPOCH": "2025-11-20T15:53:09.659040", "MEAN_MOTION": 14.97261972, "ECCENTRICITY": 0.01569814, "INCLINATION": 98.9653, "RA_OF_ASC_NODE": 295.6935, "ARG_OF_PERICENTER": 254.7539, "MEAN_ANOMALY": 103.6277, "EPHEMERIS_TYPE": 0, "CLASSIFICATION_TYPE": "U", "NORAD_CAT_ID": 35174, "ELEMENT_SET_NO": 999, "REV_AT_EPOCH": 89835, "BSTAR": 0.0019136785, "MEAN_MOTION_DOT": 0.00028569, "MEAN_MOTION_DDOT": 0}, "tle": {"line1": "1 35174U 99025DNE 25324.66191735  .00028569  00000+0  19137-2 0  9991", "line2": "2 35174  98.9653 295.6935 0156981 254.7539 103.6277 14.97261972898353"}}, "geometry": {"type": "Point", "coordinates": [151.69893288988723, 62.31227351278126]}}, {"type": "Feature", "properties": {"norad_id": 35175, "name": "FENGYUN 1C DEB", "group": "fengyun-1c-debris", "lat": 38.57203909863549, "lon": 176.21317135281052, "alt_km": 855.8754583384462, "timestamp": "2025-12-06T18:50:10.456299+00:00", "meta": {"OBJECT_NAME": "FENGYUN 1C DEB", "OBJECT_ID": "1999-025DNF", "EPOCH": "2025-12-05T18:31:05.005344", "MEAN_MOTION": 14.21283769, "ECCENTRICITY": 0.00570913, "INCLINATION": 98.5747, "RA_OF_ASC_NODE": 348.3184, "ARG_OF_PERICENTER": 300.751, "MEAN_ANOMALY": 58.8052, "EPHEMERIS_TYPE": 0, "CLASSIFICATION_TYPE": "U", "NORAD_CAT_ID": 35175, "ELEMENT_SET_NO": 999, "REV_AT_EPOCH": 61136, "BSTAR": 0.00064889762, "MEAN_MOTION_DOT": 1.395e-05, "MEAN_MOTION_DDOT": 0}, "tle": {"line1": "1 35175U 99025DNF 25339.77158571  .00001395  00000+0  64890-3 0  9996", "line2": "2 35175  98.5747 348.3184 0057091 300.7510  58.8052 14.21283769611360"}}, "geometry": {"type": "Point", "coordinates": [176.21317135281052, 38.57203909863549]}}, {"type": "Feature", "properties": {"norad_id": 35176, "name": "FENGYUN 1C DEB", "group": "fengyun-1c-debris", "lat": -70.32882079431829, "lon": 122.87571362573419, "alt_km": 882.2703721192383, "timestamp": "2025-12-06T18:50:10.456309+00:00", "meta": {"OBJECT_NAME": "FENGYUN 1C DEB", "OBJECT_ID": "1999-025DNG", "EPOCH": "2025-11-25T05:24:51.496992", "MEAN_MOTION": 14.16959142, "ECCENTRICITY": 0.00546479, "INCLINATION": 98.5542, "RA_OF_ASC_NODE": 316.6575, "ARG_OF_PERICENTER": 106.0852, "MEAN_ANOMALY": 254.6349, "EPHEMERIS_TYPE": 0, "CLASSIFICATION_TYPE": "U", "NORAD_CAT_ID": 35176, "ELEMENT_SET_NO": 999, "REV_AT_EPOCH": 90680, "BSTAR": 0.00041422938, "MEAN_MOTION_DOT": 8.03e-06, "MEAN_MOTION_DDOT": 0}, "tle": {"line1": "1 35176U 99025DNG 25329.22559603  .00000803  00000+0  41423-3 0  9997", "line2": "2 35176  98.5542 316.6575 0054647 106.0852 254.6349 14.16959142906806"}}, "geometry": {"type": "Point", "coordinates": [122.87571362573419, -70.32882079431829]}}, {"type": "Feature", "properties": {"norad_id": 35191, "name": "FENGYUN 1C DEB", "group": "fengyun-1c-debris", "lat": -18.5945901238051, "lon": 139.7946816259537, "alt_km": 862.4511883051655, "timestamp": "2025-12-06T18:50:10.456320+00:00", "meta": {"OBJECT_NAME": "FENGYUN 1C DEB", "OBJECT_ID": "1999-025DNX", "EPOCH": "2025-12-06T05:47:41.815680", "MEAN_MOTION": 13.91198801, "ECCENTRICITY": 0.01020618, "INCLINATION": 99.0152, "RA_OF_ASC_NODE": 322.3287, "ARG_OF_PERICENTER": 226.5904, "MEAN_ANOMALY": 132.6726, "EPHEMERIS_TYPE": 0, "CLASSIFICATION_TYPE": "U", "NORAD_CAT_ID": 35191, "ELEMENT_SET_NO": 999, "REV_AT_EPOCH": 87811, "BSTAR": 0.00035713054, "MEAN_MOTION_DOT": 4.26e-06, "MEAN_MOTION_DDOT": 0}, "tle": {"line1": "1 35191U 99025DNX 25340.24145620  .00000426  00000+0  35713-3 0  9995", "line2": "2 35191  99.0152 322.3287 0102061 226.5904 132.6726 13.91198801878115"}}, "geometry": {"type": "Point", "coordinates": [139.7946816259537, -18.5945901238051]}}]}